EUTELSAT 7A             
1 28187U 04008A   25322.48030811  .00000121  00000+0  00000+0 0  9999
2 28187   5.2949  74.5245 0000869 138.8300 238.1555  1.00269451 79249
EUTELSAT 174A           
1 28924U 05052A   25322.61572443  .00000029  00000+0  00000+0 0  9992
2 28924   3.6856  79.1347 0006352 160.7288 213.7837  1.00275066 50221
EUTELSAT HOTBIRD 13B    
1 29270U 06032A   25322.88307037  .00000175  00000+0  00000+0 0  9992
2 29270   1.1168  84.5673 0003345 149.9129 174.6910  1.00272663 45196
EUTELSAT HOTBIRD 13C    
1 33459U 08065A   25322.79986581 -.00000212  00000+0  00000+0 0  9994
2 33459   2.4078  81.6775 0000990 115.0639 120.8952  1.00054403 45232
EUTELSAT 36B            
1 36101U 09065A   25322.93419733  .00000131  00000+0  00000+0 0  9997
2 36101   0.0420 342.9940 0006117 259.1122 202.9572  1.00273818 58603
EUTELSAT KA-SAT 9A      
1 37258U 10069A   25322.80723251  .00000081  00000+0  00000+0 0  9990
2 37258   0.0578 320.6554 0002468 223.6813 173.4140  1.00271843 41895
EUTELSAT 7 WEST A       
1 37816U 11051A   25322.80402583 -.00000041  00000+0  00000+0 0  9991
2 37816   0.0720  21.1935 0006042 197.1472 121.9100  1.00272599 51768
EUTELSAT 16A            
1 37836U 11057A   25322.80861919  .00000123  00000+0  00000+0 0  9991
2 37836   0.0615 347.8625 0006004 258.9996 118.3774  1.00273004  5210
